STARLINK-36557          
1 67500U 26012H   26019.01773773 -.00002725  86142-5  00000+0 0  9994
2 67500  43.0100 248.3700 0007700 319.9700  13.3500 16.05267929    15
STARLINK-36433          
1 67501U 26012J   26019.01773773 -.00002725  86142-5  00000+0 0  9995
2 67501  43.0100 248.3700 0007700 319.9700  13.3500 16.05267929    16
STARLINK-36554          
1 67502U 26012K   26019.01773773 -.00002725  86142-5  00000+0 0  9996
2 67502  43.0100 248.3700 0007700 319.9700  13.3500 16.05267929    17
STARLINK-36552          
1 67503U 26012L   26019.01773773 -.00002725  86142-5  00000+0 0  9997
2 67503  43.0100 248.3700 0007700 319.9700  13.3500 16.05267929    18
STARLINK-36512          
1 67504U 26012M   26019.01773773 -.00002725  86142-5  00000+0 0  9998
2 67504  43.0100 248.3700 0007700 319.9700  13.3500 16.05267929    19
STARLINK-36545          
1 67505U 26012N   26019.01773773 -.00002725  86142-5  00000+0 0  9999
2 67505  43.0100 248.3700 0007700 319.9700  13.3500 16.05267929    10
STARLINK-36553          
1 67506U 26012P   26019.01773773 -.00002725  86142-5  00000+0 0  9990
2 67506  43.0100 248.3700 0007700 319.9700  13.3500 16.05267929    11
STARLINK-36521          
1 67507U 26012Q   26019.01773773 -.00002725  86142-5  00000+0 0  9991
2 67507  43.0100 248.3700 0007700 319.9700  13.3500 16.05267929    12
STARLINK-36526          
1 67508U 26012R   26019.01773773 -.00002725  86142-5  00000+0 0  9992
2 67508  43.0100 248.3700 0007700 319.9700  13.3500 16.05267929    13
STARLINK-36541          
1 67509U 26012S   26019.01773773 -.00002725  86142-5  00000+0 0  9993
2 67509  43.0100 248.3700 0007700 319.9700  13.3500 16.05267929    14
STARLINK-36549          
1 67510U 26012T   26019.01773773 -.00002725  86142-5  00000+0 0  9995
2 67510  43.0100 248.3700 0007700 319.9700  13.3500 16.05267929    16
STARLINK-36540          
1 67511U 26012U   26019.01773773 -.00002725  86142-5  00000+0 0  9996
2 67511  43.0100 248.3700 0007700 319.9700  13.3500 16.05267929    17
